COSMOS 2058             
1 20465U 90010A   26177.79737676  .00003320  00000+0  19123-3 0  9998
2 20465  82.4694 299.8777 0008660 322.3986  37.6638 15.12074797958721
SL-14 R/B               
1 20466U 90010B   26177.94708659  .00000378  00000+0  42798-4 0  9990
2 20466  82.5019 164.7788 0018402 302.3953  57.5481 14.83652192944688
SL-14 R/B               
1 20511U 90018B   26177.93508583  .00000386  00000+0  45338-4 0  9994
2 20511  82.5218 120.9968 0017716  92.2932 268.0311 14.82222364938769
HST                     
1 20580U 90037B   26177.92228016  .00007114  00000+0  22414-3 0  9995
2 20580  28.4734  14.0366 0001405 260.4690  99.5747 15.30856861790068
SL-16 R/B               
1 20625U 90046B   26177.98631307 -.00000215  00000+0 -86237-4 0  9993
2 20625  71.0000  68.3690 0012687 146.2289 213.9645 14.15026315863851
COSMOS 2084             
1 20663U 90055A   26177.82128328  .00002369  00000+0  17468-3 0  9991
2 20663  62.7908 323.2066 0006108 295.7526  64.2944 15.06154696952754
SL-6 R/B(2)             
1 20666U 90055D   26177.88934160  .00001390  00000+0  11289-3 0  9997
2 20666  62.7810 242.3606 0042254   6.4502 353.7132 15.04030873954613
SL-8 R/B                
1 20775U 90078B   26177.91579805  .00026586  00000+0  75128-3 0  9994
2 20775  82.9009 152.8515 0348178   5.6694 354.8304 14.92789381825575
SL-8 R/B                
1 21088U 91006B   26177.87048418  .00000051  00000+0  35831-4 0  9997
2 21088  82.9425  88.8305 0023864  89.0046 338.6688 13.77506731779109
OKEAN-3                 
1 21397U 91039A   26177.57759796  .00002187  00000+0  15052-3 0  9995
2 21397  82.5165 231.2762 0012971 322.9741  37.0590 15.05367965881415
COSMOS 2151             
1 21422U 91042A   26177.92961308  .00001796  00000+0  14036-3 0  9997
2 21422  82.4965 338.2778 0013487  54.5504 305.6977 15.00464669879575
SL-14 R/B               
1 21423U 91042B   26177.94366819  .00000342  00000+0  40199-4 0  9992
2 21423  82.4936 117.7467 0015583 239.5869 120.3806 14.81908201869257
ERS-1                   
1 21574U 91050A   26177.96536902  .00000287  00000+0  10637-3 0  9993
2 21574  98.7794 198.9024 0030868 236.8716 122.9508 14.39522662831454
ARIANE 40 R/B           
1 21610U 91050F   26177.89566510  .00000264  00000+0  91420-4 0  9999
2 21610  98.1871 225.9343 0004469 100.5047 259.6648 14.42962242834746
INTERCOSMOS 25          
1 21819U 91086A   26177.93379474  .00000824  00000+0  16365-3 0  9991
2 21819  82.6040 243.9119 1483981 241.3462 103.0604 12.12212219509920
SL-8 R/B                
1 21876U 92008B   26177.81984309  .00000159  00000+0  14763-3 0  9996
2 21876  82.9259 186.6253 0034447 187.3752 346.1076 13.75979467724421
SL-8 R/B                
1 21938U 92020B   26177.80176588  .00000058  00000+0  44729-4 0  9994
2 21938  82.9304  72.7161 0029042 356.1196  68.1992 13.75549824716134
USA 81                  
1 21949U 92023A   26177.98486070  .00000152  00000+0  48963-4 0  9997
2 21949  85.0071  68.3527 0002636  76.3693 283.7793 14.32400582110437
COSMOS 2219             
1 22219U 92076A   26177.95238343  .00000295  00000+0  17933-3 0  9991
2 22219  71.0598 149.6575 0017099  27.6134 332.5893 14.14106142733824
SL-16 R/B               
1 22220U 92076B   26177.86304196 -.00000101  00000+0 -26368-4 0  9994
2 22220  71.0013 318.3977 0014985 285.9576 236.5700 14.16875664737298
COSMOS 2221             
1 22236U 92080A   26177.96779876  .00001460  00000+0  12585-3 0  9990
2 22236  82.5031 174.3937 0014168 178.2670 181.8604 14.96557107797131
SL-16 R/B               
1 22285U 92093B   26177.92417393  .00000202  00000+0  12772-3 0  9998
2 22285  71.0206 134.9504 0003458 169.7993 190.3201 14.15461125728617
COSMOS 2228             
1 22286U 92094A   26177.97632041  .00001914  00000+0  16119-3 0  9994
2 22286  82.5179 132.6662 0016112 296.7702  63.1872 14.97620574792419
SL-16 R/B               
1 22566U 93016B   26177.90524634 -.00000157  00000+0 -56147-4 0  9997
2 22566  71.0088 345.7951 0009553 169.7825 190.3494 14.15315694717623
COSMOS 2242             
1 22626U 93024A   26177.94024522  .00001682  00000+0  14396-3 0  9999
2 22626  82.5182 162.2115 0014639 301.1031  58.8754 14.96931669796739
SL-16 R/B               
1 22803U 93059B   26177.94767883  .00000080  00000+0  63235-4 0  9996
2 22803  70.9892 140.7205 0015656  37.7801 322.4418 14.17247367695017
ARIANE 40 R/B           
1 22830U 93061H   26177.91150024  .00000161  00000+0  74750-4 0  9993
2 22830  98.4816 244.5665 0009874 326.2949  33.7607 14.32911441709741
COSMOS 2278             
1 23087U 94023A   26177.79447266 -.00000160  00000+0 -59127-4 0  9992
2 23087  71.0552 306.8241 0010451 232.2676 127.7500 14.14398294660239
SL-16 R/B               
1 23088U 94023B   26177.79195577 -.00000087  00000+0 -20295-4 0  9990
2 23088  70.9986 201.7605 0002082 179.0632 181.0494 14.15027612661529
SL-16 R/B               
1 23343U 94074B   26177.95501961  .00000413  00000+0  61793-4 0  9995
2 23343  97.6987 204.2689 0005625 214.4045 212.7633 14.79510027703406
