OBJECT_NAME,OBJECT_ID,EPOCH,MEAN_MOTION,ECCENTRICITY,INCLINATION,RA_OF_ASC_NODE,ARG_OF_PERICENTER,MEAN_ANOMALY,EPHEMERIS_TYPE,CLASSIFICATION_TYPE,NORAD_CAT_ID,ELEMENT_SET_NO,REV_AT_EPOCH,BSTAR,MEAN_MOTION_DOT,MEAN_MOTION_DDOT
COSMOS 2058,1990-010A,2026-06-26T19:08:13.352064,15.12074797,.00086609,82.4694,299.8777,322.3986,37.6638,0,U,20465,999,95872,.19122811E-3,.332E-4,0
SL-14 R/B,1990-010B,2026-06-26T22:43:48.281376,14.83652192,.00184022,82.5019,164.7788,302.3953,57.5481,0,U,20466,999,94468,.42797649E-4,.378E-5,0
SL-14 R/B,1990-018B,2026-06-26T22:26:31.415712,14.82222364,.00177169,82.5218,120.9968,92.2932,268.0311,0,U,20511,999,93876,.45337831E-4,.386E-5,0
HST,1990-037B,2026-06-26T22:08:05.005824,15.30856861,.00014057,28.4734,14.0366,260.4690,99.5747,0,U,20580,999,79006,.22413771E-3,.7114E-4,0
SL-16 R/B,1990-046B,2026-06-26T23:40:17.449248,14.15026315,.00126879,71.0000,68.3690,146.2289,213.9645,0,U,20625,999,86385,-.86237232E-4,-.215E-5,0
COSMOS 2084,1990-055A,2026-06-26T19:42:38.875392,15.06154696,.00061082,62.7908,323.2066,295.7526,64.2944,0,U,20663,999,95275,.17467607E-3,.2369E-4,0
SL-6 R/B(2),1990-055D,2026-06-26T21:20:39.114240,15.04030873,.00422545,62.7810,242.3606,6.4502,353.7132,0,U,20666,999,95461,.11288964E-3,.139E-4,0
SL-8 R/B,1990-078B,2026-06-26T21:58:44.951520,14.92789381,.0348178,82.9009,152.8515,5.6694,354.8304,0,U,20775,999,82557,.75128427E-3,.26586E-3,0
SL-8 R/B,1991-006B,2026-06-26T20:53:29.833152,13.77506731,.00238641,82.9425,88.8305,89.0046,338.6688,0,U,21088,999,77910,.35831292E-4,.51E-6,0
OKEAN-3,1991-039A,2026-06-26T13:51:44.463744,15.05367965,.0012971,82.5165,231.2762,322.9741,37.0590,0,U,21397,999,88141,.15052E-3,.2187E-4,0
COSMOS 2151,1991-042A,2026-06-26T22:18:38.570112,15.00464669,.00134873,82.4965,338.2778,54.5504,305.6977,0,U,21422,999,87957,.14035693E-3,.1796E-4,0
SL-14 R/B,1991-042B,2026-06-26T22:38:52.931616,14.81908201,.00155836,82.4936,117.7467,239.5869,120.3806,0,U,21423,999,86925,.40198533E-4,.342E-5,0
ERS-1,1991-050A,2026-06-26T23:10:07.883328,14.39522662,.00308681,98.7794,198.9024,236.8716,122.9508,0,U,21574,999,83145,.10637326E-3,.287E-5,0
ARIANE 40 R/B,1991-050F,2026-06-26T21:29:45.464640,14.42962242,.00044696,98.1871,225.9343,100.5047,259.6648,0,U,21610,999,83474,.91419983E-4,.264E-5,0
INTERCOSMOS 25,1991-086A,2026-06-26T22:24:39.865536,12.12212219,.14839815,82.6040,243.9119,241.3462,103.0604,0,U,21819,999,50992,.16365343E-3,.824E-5,0
SL-8 R/B,1992-008B,2026-06-26T19:40:34.442976,13.75979467,.00344475,82.9259,186.6253,187.3752,346.1076,0,U,21876,999,72442,.14762864E-3,.159E-5,0
SL-8 R/B,1992-020B,2026-06-26T19:14:32.572032,13.75549824,.00290423,82.9304,72.7161,356.1196,68.1992,0,U,21938,999,71613,.44729474E-4,.58E-6,0
USA 81,1992-023A,2026-06-26T23:38:11.964480,14.32400582,.00026361,85.0071,68.3527,76.3693,283.7793,0,U,21949,999,11043,.48963273E-4,.152E-5,0
COSMOS 2219,1992-076A,2026-06-26T22:51:25.928352,14.14106142,.00170994,71.0598,149.6575,27.6134,332.5893,0,U,22219,999,73382,.17932661E-3,.295E-5,0
SL-16 R/B,1992-076B,2026-06-26T20:42:46.825344,14.16875664,.00149854,71.0013,318.3977,285.9576,236.5700,0,U,22220,999,73729,-.26367876E-4,-.101E-5,0
COSMOS 2221,1992-080A,2026-06-26T23:13:37.812864,14.96557107,.00141683,82.5031,174.3937,178.2670,181.8604,0,U,22236,999,79713,.12585266E-3,.146E-4,0
SL-16 R/B,1992-093B,2026-06-26T22:10:48.627552,14.15461125,.00034586,71.0206,134.9504,169.7993,190.3201,0,U,22285,999,72861,.12772436E-3,.202E-5,0
COSMOS 2228,1992-094A,2026-06-26T23:25:54.083424,14.97620574,.00161123,82.5179,132.6662,296.7702,63.1872,0,U,22286,999,79241,.16118544E-3,.1914E-4,0
SL-16 R/B,1993-016B,2026-06-26T21:43:33.283776,14.15315694,.00095534,71.0088,345.7951,169.7825,190.3494,0,U,22566,999,71762,-.56147434E-4,-.157E-5,0
COSMOS 2242,1993-024A,2026-06-26T22:33:57.187008,14.96931669,.00146394,82.5182,162.2115,301.1031,58.8754,0,U,22626,999,79673,.14395531E-3,.1682E-4,0
SL-16 R/B,1993-059B,2026-06-26T22:44:39.450912,14.17247367,.00156568,70.9892,140.7205,37.7801,322.4418,0,U,22803,999,69501,.63235374E-4,.8E-6,0
ARIANE 40 R/B,1993-061H,2026-06-26T21:52:33.620736,14.32911441,.00098746,98.4816,244.5665,326.2949,33.7607,0,U,22830,999,70974,.74750005E-4,.161E-5,0
COSMOS 2278,1994-023A,2026-06-26T19:04:02.437824,14.14398294,.00104516,71.0552,306.8241,232.2676,127.7500,0,U,23087,999,66023,-.59127414E-4,-.16E-5,0
SL-16 R/B,1994-023B,2026-06-26T19:00:24.978528,14.15027612,.00020821,70.9986,201.7605,179.0632,181.0494,0,U,23088,999,66152,-.20294994E-4,-.87E-6,0
SL-16 R/B,1994-074B,2026-06-26T22:55:13.694304,14.79510027,.0005625,97.6987,204.2689,214.4045,212.7633,0,U,23343,999,70340,.61792696E-4,.413E-5,0
